{
  "type": "FeatureCollection",
  "features": [
    {
      "type": "Feature",
      "properties": {
        "norad_id": 66648,
        "name": "COSMOS 2598 (RODNIK-S 23)",
        "group": "last-30-days",
        "lat": -24.31686780282642,
        "lon": 109.5022202231079,
        "alt_km": 1492.855303942053,
        "timestamp": "2025-12-13T07:35:40.337733+00:00",
        "meta_object_name": "COSMOS 2598 (RODNIK-S 23)",
        "meta_object_id": "2025-273B",
        "meta_epoch": "2025-12-12T22:46:19.476192",
        "meta_mean_motion": 12.43233345,
        "meta_eccentricity": 0.00079939,
        "meta_inclination": 82.5022,
        "meta_ra_of_asc_node": 286.3195,
        "meta_arg_of_pericenter": 236.5256,
        "meta_mean_anomaly": 123.506,
        "meta_ephemeris_type": 0,
        "meta_classification_type": "U",
        "meta_norad_cat_id": 66648,
        "meta_element_set_no": 999,
        "meta_rev_at_epoch": 216,
        "meta_bstar": -5.3115526e-05,
        "meta_mean_motion_dot": 2e-08,
        "meta_mean_motion_ddot": 0,
        "tle_line1": "1 66648U 25273B   25346.94883653  .00000002  00000+0 -53116-4 0  9997",
        "tle_line2": "2 66648  82.5022 286.3195 0007993 236.5256 123.5060 12.43233345  2168"
      },
      "geometry": {
        "type": "Point",
        "coordinates": [
          109.5022202231079,
          -24.31686780282642
        ]
      }
    },
    {
      "type": "Feature",
      "properties": {
        "norad_id": 66649,
        "name": "COSMOS 2599 (RODNIK-S 24)",
        "group": "last-30-days",
        "lat": 33.82380444871672,
        "lon": 101.04896310592129,
        "alt_km": 1502.699759134085,
        "timestamp": "2025-12-13T07:35:40.337745+00:00",
        "meta_object_name": "COSMOS 2599 (RODNIK-S 24)",
        "meta_object_id": "2025-273C",
        "meta_epoch": "2025-12-12T23:04:21.395136",
        "meta_mean_motion": 12.41150909,
        "meta_eccentricity": 0.00063247,
        "meta_inclination": 82.5045,
        "meta_ra_of_asc_node": 286.3293,
        "meta_arg_of_pericenter": 278.0637,
        "meta_mean_anomaly": 81.9724,
        "meta_ephemeris_type": 0,
        "meta_classification_type": "U",
        "meta_norad_cat_id": 66649,
        "meta_element_set_no": 999,
        "meta_rev_at_epoch": 216,
        "meta_bstar": 0.00045039203,
        "meta_mean_motion_dot": 7.1e-07,
        "meta_mean_motion_ddot": 0,
        "tle_line1": "1 66649U 25273C   25346.96135874  .00000071  00000+0  45039-3 0  9994",
        "tle_line2": "2 66649  82.5045 286.3293 0006324 278.0637  81.9724 12.41150909  2160"
      },
      "geometry": {
        "type": "Point",
        "coordinates": [
          101.04896310592129,
          33.82380444871672
        ]
      }
    },
    {
      "type": "Feature",
      "properties": {
        "norad_id": 66650,
        "name": "BEE-1000",
        "group": "last-30-days",
        "lat": 32.859285574652795,
        "lon": 99.53238911310615,
        "alt_km": 592.3782462787331,
        "timestamp": "2025-12-13T07:35:40.337754+00:00",
        "meta_object_name": "BEE-1000",
        "meta_object_id": "2025-274A",
        "meta_epoch": "2025-12-12T18:03:30.652704",
        "meta_mean_motion": 14.91662883,
        "meta_eccentricity": 0.0010367,
        "meta_inclination": 97.7386,
        "meta_ra_of_asc_node": 273.9398,
        "meta_arg_of_pericenter": 251.2975,
        "meta_mean_anomaly": 108.7119,
        "meta_ephemeris_type": 0,
        "meta_classification_type": "U",
        "meta_norad_cat_id": 66650,
        "meta_element_set_no": 999,
        "meta_rev_at_epoch": 240,
        "meta_bstar": 0.00033194488,
        "meta_mean_motion_dot": 3.284e-05,
        "meta_mean_motion_ddot": 0,
        "tle_line1": "1 66650U 25274A   25346.75243811  .00003284  00000+0  33194-3 0  9993",
        "tle_line2": "2 66650  97.7386 273.9398 0010367 251.2975 108.7119 14.91662883  2405"
      },
      "geometry": {
        "type": "Point",
        "coordinates": [
          99.53238911310615,
          32.859285574652795
        ]
      }
    },
    {
      "type": "Feature",
      "properties": {
        "norad_id": 66651,
        "name": "2025-274B",
        "group": "last-30-days",
        "lat": 27.66021880942023,
        "lon": 98.58158660081541,
        "alt_km": 592.0039556829161,
        "timestamp": "2025-12-13T07:35:40.337763+00:00",
        "meta_object_name": "2025-274B",
        "meta_object_id": "2025-274B",
        "meta_epoch": "2025-12-12T18:02:10.476960",
        "meta_mean_motion": 14.9180038,
        "meta_eccentricity": 0.00105642,
        "meta_inclination": 97.738,
        "meta_ra_of_asc_node": 273.9403,
        "meta_arg_of_pericenter": 250.2531,
        "meta_mean_anomaly": 109.7549,
        "meta_ephemeris_type": 0,
        "meta_classification_type": "U",
        "meta_norad_cat_id": 66651,
        "meta_element_set_no": 999,
        "meta_rev_at_epoch": 240,
        "meta_bstar": 0.00066878706,
        "meta_mean_motion_dot": 6.699e-05,
        "meta_mean_motion_ddot": 0,
        "tle_line1": "1 66651U 25274B   25346.75151015  .00006699  00000+0  66879-3 0  9997",
        "tle_line2": "2 66651  97.7380 273.9403 0010564 250.2531 109.7549 14.91800380  2407"
      },
      "geometry": {
        "type": "Point",
        "coordinates": [
          98.58158660081541,
          27.66021880942023
        ]
      }
    },
    {
      "type": "Feature",
      "properties": {
        "norad_id": 66652,
        "name": "2025-274C",
        "group": "last-30-days",
        "lat": 19.829968134902604,
        "lon": 97.30987016906035,
        "alt_km": 592.8382388178652,
        "timestamp": "2025-12-13T07:35:40.337772+00:00",
        "meta_object_name": "2025-274C",
        "meta_object_id": "2025-274C",
        "meta_epoch": "2025-12-12T18:00:06.329664",
        "meta_mean_motion": 14.91898182,
        "meta_eccentricity": 0.00103523,
        "meta_inclination": 97.7387,
        "meta_ra_of_asc_node": 273.943,
        "meta_arg_of_pericenter": 257.3235,
        "meta_mean_anomaly": 102.6827,
        "meta_ephemeris_type": 0,
        "meta_classification_type": "U",
        "meta_norad_cat_id": 66652,
        "meta_element_set_no": 999,
        "meta_rev_at_epoch": 240,
        "meta_bstar": 0.00040855361,
        "meta_mean_motion_dot": 4.079e-05,
        "meta_mean_motion_ddot": 0,
        "tle_line1": "1 66652U 25274C   25346.75007326  .00004079  00000+0  40855-3 0  9999",
        "tle_line2": "2 66652  97.7387 273.9430 0010352 257.3235 102.6827 14.91898182  2407"
      },
      "geometry": {
        "type": "Point",
        "coordinates": [
          97.30987016906035,
          19.829968134902604
        ]
      }
    },
    {
      "type": "Feature",
      "properties": {
        "norad_id": 66653,
        "name": "2025-274D",
        "group": "last-30-days",
        "lat": 19.428791833270783,
        "lon": 97.24815625046352,
        "alt_km": 592.3184841241,
        "timestamp": "2025-12-13T07:35:40.337780+00:00",
        "meta_object_name": "2025-274D",
        "meta_object_id": "2025-274D",
        "meta_epoch": "2025-12-12T17:59:59.882496",
        "meta_mean_motion": 14.91907825,
        "meta_eccentricity": 0.00111348,
        "meta_inclination": 97.7384,
        "meta_ra_of_asc_node": 273.9429,
        "meta_arg_of_pericenter": 253.2745,
        "meta_mean_anomaly": 106.7252,
        "meta_ephemeris_type": 0,
        "meta_classification_type": "U",
        "meta_norad_cat_id": 66653,
        "meta_element_set_no": 999,
        "meta_rev_at_epoch": 240,
        "meta_bstar": 0.00048010841,
        "meta_mean_motion_dot": 4.806e-05,
        "meta_mean_motion_ddot": 0,
        "tle_line1": "1 66653U 25274D   25346.74999864  .00004806  00000+0  48011-3 0  9996",
        "tle_line2": "2 66653  97.7384 273.9429 0011134 253.2745 106.7252 14.91907825  2405"
      },
      "geometry": {
        "type": "Point",
        "coordinates": [
          97.24815625046352,
          19.428791833270783
        ]
      }
    },
    {
      "type": "Feature",
      "properties": {
        "norad_id": 66654,
        "name": "JACK E",
        "group": "last-30-days",
        "lat": 9.476508801779984,
        "lon": 95.80433249112812,
        "alt_km": 592.1170079711246,
        "timestamp": "2025-12-13T07:35:40.337790+00:00",
        "meta_object_name": "JACK E",
        "meta_object_id": "2025-274E",
        "meta_epoch": "2025-12-12T17:57:23.787072",
        "meta_mean_motion": 14.92083468,
        "meta_eccentricity": 0.00117279,
        "meta_inclination": 97.7387,
        "meta_ra_of_asc_node": 273.9456,
        "meta_arg_of_pericenter": 255.0239,
        "meta_mean_anomaly": 104.9682,
        "meta_ephemeris_type": 0,
        "meta_classification_type": "U",
        "meta_norad_cat_id": 66654,
        "meta_element_set_no": 999,
        "meta_rev_at_epoch": 240,
        "meta_bstar": 0.00049140414,
        "meta_mean_motion_dot": 4.943e-05,
        "meta_mean_motion_ddot": 0,
        "tle_line1": "1 66654U 25274E   25346.74819198  .00004943  00000+0  49140-3 0  9994",
        "tle_line2": "2 66654  97.7387 273.9456 0011727 255.0239 104.9682 14.92083468  2401"
      },
      "geometry": {
        "type": "Point",
        "coordinates": [
          95.80433249112812,
          9.476508801779984
        ]
      }
    }
  ]
}